start=new Date('2021-12-29T00:00:00.000Z').valueOf();
sats=[{"RCS_SIZE":"LARGE","TLE_LINE1":"1 47573U 21009AB  21362.49638115 -.00000847  00000-0 -37977-4 0  9997","RA_OF_ASC_NODE":"49.8937","NORAD_CAT_ID":"47573","TLE_LINE2":"2 47573  53.0562  49.8937 0001502  80.8001 279.3157 15.06393450 49995","SEMIMAJOR_AXIS":"6925.369","TIME_SYSTEM":"UTC","OBJECT_NAME":"STARLINK-1975","EPOCH":"2021-12-28T11:54:47.331360","INCLINATION":"53.0562","REV_AT_EPOCH":"4999","MEAN_ANOMALY":"279.3157","OBJECT_TYPE":"PAYLOAD","REF_FRAME":"TEME","MEAN_MOTION_DOT":"-0.00000847","PERIOD":"95.593","LAUNCH_DATE":"2021-02-04","PERIAPSIS":"546.193","EPHEMERIS_TYPE":"0","CENTER_NAME":"EARTH","APOAPSIS":"548.274","ELEMENT_SET_NO":"999","CLASSIFICATION_TYPE":"U","ARG_OF_PERICENTER":"80.8001","GP_ID":"192639106","MEAN_ELEMENT_THEORY":"SGP4","BSTAR":"-0.00003797700000","MEAN_MOTION":"15.06393450","OBJECT_ID":"2021-009AB","ECCENTRICITY":"0.00015020","COUNTRY_CODE":"US","FILE":"3253660","SITE":"AFETR","MEAN_MOTION_DDOT":"0.0000000000000","DECAY_DATE":null},{"REV_AT_EPOCH":"4960","MEAN_ANOMALY":"276.0685","OBJECT_TYPE":"PAYLOAD","REF_FRAME":"TEME","MEAN_MOTION_DOT":"0.00008048","PERIOD":"95.592","LAUNCH_DATE":"2021-02-04","PERIAPSIS":"546.201","RCS_SIZE":"LARGE","TLE_LINE1":"1 47574U 21009AC  21362.71108370  .00008048  00000-0  55839-3 0  9993","RA_OF_ASC_NODE":"78.9336","TLE_LINE2":"2 47574  53.0555  78.9336 0001418  84.0465 276.0685 15.06409813 49609","SEMIMAJOR_AXIS":"6925.318","NORAD_CAT_ID":"47574","OBJECT_NAME":"STARLINK-1976","TIME_SYSTEM":"UTC","EPOCH":"2021-12-28T17:03:57.631680","INCLINATION":"53.0555","COUNTRY_CODE":"US","SITE":"AFETR","FILE":"3254265","MEAN_MOTION_DDOT":"0.0000000000000","DECAY_DATE":null,"EPHEMERIS_TYPE":"0","APOAPSIS":"548.165","CENTER_NAME":"EARTH","ELEMENT_SET_NO":"999","CLASSIFICATION_TYPE":"U","ARG_OF_PERICENTER":"84.0465","GP_ID":"192675621","BSTAR":"0.00055839000000","MEAN_ELEMENT_THEORY":"SGP4","MEAN_MOTION":"15.06409813","OBJECT_ID":"2021-009AC","ECCENTRICITY":"0.00014180"},{"TLE_LINE1":"1 47575U 21009AD  21362.56733310  .00009037  00000-0  62469-3 0  9991","RA_OF_ASC_NODE":"79.5792","RCS_SIZE":"LARGE","NORAD_CAT_ID":"47575","TLE_LINE2":"2 47575  53.0547  79.5792 0001429  89.9597 270.1556 15.06405842 49583","SEMIMAJOR_AXIS":"6925.331","TIME_SYSTEM":"UTC","OBJECT_NAME":"STARLINK-1977","EPOCH":"2021-12-28T13:36:57.579840","INCLINATION":"53.0547","REV_AT_EPOCH":"4958","MEAN_ANOMALY":"270.1556","REF_FRAME":"TEME","OBJECT_TYPE":"PAYLOAD","PERIOD":"95.592","MEAN_MOTION_DOT":"0.00009037","LAUNCH_DATE":"2021-02-04","PERIAPSIS":"546.206","CENTER_NAME":"EARTH","APOAPSIS":"548.185","EPHEMERIS_TYPE":"0","ARG_OF_PERICENTER":"89.9597","CLASSIFICATION_TYPE":"U","ELEMENT_SET_NO":"999","GP_ID":"192675371","BSTAR":"0.00062469000000","MEAN_ELEMENT_THEORY":"SGP4","ECCENTRICITY":"0.00014290","OBJECT_ID":"2021-009AD","MEAN_MOTION":"15.06405842","COUNTRY_CODE":"US","SITE":"AFETR","FILE":"3254265","MEAN_MOTION_DDOT":"0.0000000000000","DECAY_DATE":null},{"MEAN_ELEMENT_THEORY":"SGP4","BSTAR":"0.00006139700000","MEAN_MOTION":"15.06395674","OBJECT_ID":"2021-009AE","ECCENTRICITY":"0.00015300","EPHEMERIS_TYPE":"0","CENTER_NAME":"EARTH","APOAPSIS":"548.286","ELEMENT_SET_NO":"999","CLASSIFICATION_TYPE":"U","ARG_OF_PERICENTER":"63.6377","GP_ID":"192674620","MEAN_MOTION_DDOT":"0.0000000000000","DECAY_DATE":null,"COUNTRY_CODE":"US","SITE":"AFETR","FILE":"3254265","EPOCH":"2021-12-28T14:24:44.441568","INCLINATION":"53.0540","RCS_SIZE":"LARGE","RA_OF_ASC_NODE":"39.4330","TLE_LINE1":"1 47576U 21009AE  21362.60051437  .00000633  00000-0  61397-4 0  9993","SEMIMAJOR_AXIS":"6925.362","TLE_LINE2":"2 47576  53.0540  39.4330 0001530  63.6377 296.4769 15.06395674 50151","NORAD_CAT_ID":"47576","TIME_SYSTEM":"UTC","OBJECT_NAME":"STARLINK-1978","OBJECT_TYPE":"PAYLOAD","REF_FRAME":"TEME","MEAN_MOTION_DOT":"0.00000633","PERIOD":"95.592","LAUNCH_DATE":"2021-02-04","PERIAPSIS":"546.167","REV_AT_EPOCH":"5015","MEAN_ANOMALY":"296.4769"},{"REV_AT_EPOCH":"4995","MEAN_ANOMALY":"276.6762","OBJECT_TYPE":"PAYLOAD","REF_FRAME":"TEME","MEAN_MOTION_DOT":"0.00001152","PERIOD":"95.592","PERIAPSIS":"546.286","LAUNCH_DATE":"2021-02-04","RCS_SIZE":"LARGE","RA_OF_ASC_NODE":"54.2619","TLE_LINE1":"1 47577U 21009AF  21362.64151447  .00001152  00000-0  96197-4 0  9993","SEMIMAJOR_AXIS":"6925.348","TLE_LINE2":"2 47577  53.0539  54.2619 0001338  83.4379 276.6762 15.06400211 49956","NORAD_CAT_ID":"47577","OBJECT_NAME":"STARLINK-1979","TIME_SYSTEM":"UTC","EPOCH":"2021-12-28T15:23:46.850208","INCLINATION":"53.0539","COUNTRY_CODE":"US","FILE":"3254265","SITE":"AFETR","MEAN_MOTION_DDOT":"0.0000000000000","DECAY_DATE":null,"EPHEMERIS_TYPE":"0","APOAPSIS":"548.140","CENTER_NAME":"EARTH","ELEMENT_SET_NO":"999","ARG_OF_PERICENTER":"83.4379","CLASSIFICATION_TYPE":"U","GP_ID":"192674369","MEAN_ELEMENT_THEORY":"SGP4","BSTAR":"0.00009619700000","OBJECT_ID":"2021-009AF","MEAN_MOTION":"15.06400211","ECCENTRICITY":"0.00013380"},{"MEAN_MOTION_DDOT":"0.0000000000000","DECAY_DATE":null,"COUNTRY_CODE":"US","SITE":"AFETR","FILE":"3254265","BSTAR":"0.00067136000000","MEAN_ELEMENT_THEORY":"SGP4","OBJECT_ID":"2021-009AG","MEAN_MOTION":"15.06413399","ECCENTRICITY":"0.00015020","EPHEMERIS_TYPE":"0","CENTER_NAME":"EARTH","APOAPSIS":"548.213","ELEMENT_SET_NO":"999","ARG_OF_PERICENTER":"84.9203","CLASSIFICATION_TYPE":"U","GP_ID":"192675121","OBJECT_TYPE":"PAYLOAD","REF_FRAME":"TEME","MEAN_MOTION_DOT":"0.00009736","PERIOD":"95.591","PERIAPSIS":"546.132","LAUNCH_DATE":"2021-02-04","REV_AT_EPOCH":"4987","MEAN_ANOMALY":"275.1957","EPOCH":"2021-12-28T15:15:09.064512","INCLINATION":"53.0549","RCS_SIZE":"LARGE","RA_OF_ASC_NODE":"59.2699","TLE_LINE1":"1 47578U 21009AG  21362.63552158  .00009736  00000-0  67136-3 0  9993","TLE_LINE2":"2 47578  53.0549  59.2699 0001502  84.9203 275.1957 15.06413399 49878","SEMIMAJOR_AXIS":"6925.307","NORAD_CAT_ID":"47578","OBJECT_NAME":"STARLINK-1980","TIME_SYSTEM":"UTC"},{"TIME_SYSTEM":"UTC","OBJECT_NAME":"STARLINK-1981","NORAD_CAT_ID":"47579","TLE_LINE2":"2 47579  53.0562  49.3533 0001364  75.9137 284.2003 15.06391676 50017","SEMIMAJOR_AXIS":"6925.374","RA_OF_ASC_NODE":"49.3533","TLE_LINE1":"1 47579U 21009AH  21362.61801671  .00000147  00000-0  28800-4 0  9992","RCS_SIZE":"LARGE","INCLINATION":"53.0562","EPOCH":"2021-12-28T14:49:56.643744","MEAN_ANOMALY":"284.2003","REV_AT_EPOCH":"5001","PERIAPSIS":"546.294","LAUNCH_DATE":"2021-02-04","PERIOD":"95.593","MEAN_MOTION_DOT":"0.00000147","REF_FRAME":"TEME","OBJECT_TYPE":"PAYLOAD","GP_ID":"192675872","ARG_OF_PERICENTER":"75.9137","CLASSIFICATION_TYPE":"U","ELEMENT_SET_NO":"999","CENTER_NAME":"EARTH","APOAPSIS":"548.184","EPHEMERIS_TYPE":"0","ECCENTRICITY":"0.00013640","MEAN_MOTION":"15.06391676","OBJECT_ID":"2021-009AH","BSTAR":"0.00002880000000","MEAN_ELEMENT_THEORY":"SGP4","FILE":"3254265","SITE":"AFETR","COUNTRY_CODE":"US","DECAY_DATE":null,"MEAN_MOTION_DDOT":"0.0000000000000"},{"OBJECT_ID":"2021-009AJ","MEAN_MOTION":"15.06406180","ECCENTRICITY":"0.00012820","MEAN_ELEMENT_THEORY":"SGP4","BSTAR":"0.00024060000000","ELEMENT_SET_NO":"999","ARG_OF_PERICENTER":"75.4418","CLASSIFICATION_TYPE":"U","GP_ID":"192674120","EPHEMERIS_TYPE":"0","CENTER_NAME":"EARTH","APOAPSIS":"548.082","MEAN_MOTION_DDOT":"0.0000000000000","DECAY_DATE":null,"FILE":"3254265","SITE":"AFETR","COUNTRY_CODE":"US","INCLINATION":"53.0558","EPOCH":"2021-12-28T15:20:27.502080","NORAD_CAT_ID":"47580","TLE_LINE2":"2 47580  53.0558  59.2492 0001282  75.4418 284.6713 15.06406180 49875","SEMIMAJOR_AXIS":"6925.330","OBJECT_NAME":"STARLINK-1982","TIME_SYSTEM":"UTC","RCS_SIZE":"LARGE","TLE_LINE1":"1 47580U 21009AJ  21362.63920720  .00003305  00000-0  24060-3 0  9995","RA_OF_ASC_NODE":"59.2492","MEAN_MOTION_DOT":"0.00003305","PERIOD":"95.592","LAUNCH_DATE":"2021-02-04","PERIAPSIS":"546.307","OBJECT_TYPE":"PAYLOAD","REF_FRAME":"TEME","MEAN_ANOMALY":"284.6713","REV_AT_EPOCH":"4987"},{"REF_FRAME":"TEME","OBJECT_TYPE":"PAYLOAD","PERIAPSIS":"545.965","LAUNCH_DATE":"2021-02-04","PERIOD":"95.592","MEAN_MOTION_DOT":"0.00002146","REV_AT_EPOCH":"5074","MEAN_ANOMALY":"287.6277","EPOCH":"2021-12-28T11:40:11.593056","INCLINATION":"53.0564","TLE_LINE1":"1 47581U 21009AK  21362.48624529  .00002146  00000-0  16295-3 0  9990","RA_OF_ASC_NODE":"39.9471","RCS_SIZE":"LARGE","OBJECT_NAME":"STARLINK-1984","TIME_SYSTEM":"UTC","TLE_LINE2":"2 47581  53.0564  39.9471 0001806  72.4910 287.6277 15.06399436 50742","SEMIMAJOR_AXIS":"6925.350","NORAD_CAT_ID":"47581","DECAY_DATE":null,"MEAN_MOTION_DDOT":"0.0000000000000","COUNTRY_CODE":"US","FILE":"3254215","SITE":"AFETR","BSTAR":"0.00016295000000","MEAN_ELEMENT_THEORY":"SGP4","ECCENTRICITY":"0.00018060","OBJECT_ID":"2021-009AK","MEAN_MOTION":"15.06399436","CENTER_NAME":"EARTH","APOAPSIS":"548.466","EPHEMERIS_TYPE":"0","GP_ID":"192652657","ARG_OF_PERICENTER":"72.4910","CLASSIFICATION_TYPE":"U","ELEMENT_SET_NO":"999"},{"SITE":"AFETR","FILE":"3253660","COUNTRY_CODE":"US","DECAY_DATE":null,"MEAN_MOTION_DDOT":"0.0000000000000","GP_ID":"192639357","ELEMENT_SET_NO":"999","ARG_OF_PERICENTER":"77.4604","CLASSIFICATION_TYPE":"U","EPHEMERIS_TYPE":"0","CENTER_NAME":"EARTH","APOAPSIS":"548.215","OBJECT_ID":"2021-009AL","MEAN_MOTION":"15.06404916","ECCENTRICITY":"0.00014680","BSTAR":"0.00019903000000","MEAN_ELEMENT_THEORY":"SGP4","MEAN_ANOMALY":"282.6549","REV_AT_EPOCH":"4986","LAUNCH_DATE":"2021-02-04","PERIAPSIS":"546.182","MEAN_MOTION_DOT":"0.00002685","PERIOD":"95.592","OBJECT_TYPE":"PAYLOAD","REF_FRAME":"TEME","OBJECT_NAME":"STARLINK-1986","TIME_SYSTEM":"UTC","TLE_LINE2":"2 47582  53.0547  59.7190 0001468  77.4604 282.6549 15.06404916 49869","SEMIMAJOR_AXIS":"6925.333","NORAD_CAT_ID":"47582","RCS_SIZE":"LARGE","RA_OF_ASC_NODE":"59.7190","TLE_LINE1":"1 47582U 21009AL  21362.53969176  .00002685  00000-0  19903-3 0  9994","INCLINATION":"53.0547","EPOCH":"2021-12-28T12:57:09.368064"}];
